55141,ONEWEB-0533,2023,109.72,148.0,+,87.9,Active,1,LEO,USA,UK,Commercial,Communications,Falcon,1 55141U 23004B   24023.95052869 -.00000416  00000+0 -11923-2 0  9990,2 55141  87.9034 164.7628 0001485 108.0920 252.0370 13.12443654 53258,13.12443654,0.0001485,LEO
55142,ONEWEB-0541,2023,109.81,148.0,+,87.9,Active,1,LEO,USA,UK,Commercial,Communications,Falcon,1 55142U 23004C   24024.51746724  .00000537  00000+0  14785-2 0  9995,2 55142  87.8972 194.9030 0001316  96.1674 263.9604 13.11419453 51312,13.11419453,0.0001316,LEO
55143,ONEWEB-0543,2023,109.2,148.0,+,87.92,Active,1,LEO,USA,UK,Commercial,Communications,Falcon,1 55143U 23004D   24024.38402757 -.00014999  00000+0 -38102-1 0  9993,2 55143  87.9235 149.6339 0001537  98.7856 261.3451 13.18752289 54409,13.18752289,0.0001537,LEO
55144,ONEWEB-0544,2023,109.2,148.0,+,87.92,Active,1,LEO,USA,UK,Commercial,Communications,Falcon,1 55144U 23004E   24023.84659014  .00000012  00000+0 -21095-5 0  9991,2 55144  87.9239 149.7232 0001608  96.8658 263.2657 13.18684369 54339,13.18684369,0.0001608,LEO
55145,ONEWEB-0560,2023,109.2,148.0,+,87.92,Active,1,LEO,USA,UK,Commercial,Communications,Falcon,1 55145U 23004F   24023.84026896  .00000042  00000+0  74939-4 0  9994,2 55145  87.9245 149.6668 0002039  99.4781 260.6582 13.18685787 54348,13.18685787,0.0002039,LEO
55146,ONEWEB-0565,2023,109.2,148.0,+,87.92,Active,1,LEO,USA,UK,Commercial,Communications,Falcon,1 55146U 23004G   24023.83394614  .00000056  00000+0  10892-3 0  9992,2 55146  87.9241 149.7530 0001312  68.4543 291.6729 13.18685564 54338,13.18685564,0.0001312,LEO
55147,ONEWEB-0567,2023,109.2,148.0,+,87.92,Active,1,LEO,USA,UK,Commercial,Communications,Falcon,1 55147U 23004H   24023.82764139  .00000012  00000+0 -21272-5 0  9994,2 55147  87.9240 149.7069 0001998  89.5148 270.6213 13.18685969 54334,13.18685969,0.0001998,LEO
55148,ONEWEB-0569,2023,108.09,148.0,+,88.01,Active,1,LEO,USA,UK,Commercial,Communications,Falcon,1 55148U 23004J   24024.58334491  .00000013  00000+0  00000+0 0  9993,2 55148  87.9882 134.2833 0003181  63.4956 325.8814 13.30207855 55350,13.30207855,0.0003181,LEO
